     2.100          NAVIGATION                              RINEX VERSION / TYPE
fic2rin                                 07/08/2012 00:13:34 PGM / RUN BY / DATE
                                                            END OF HEADER
 3 12  7  7 12  0  0.0  .721700489521D-04  .500222085975D-11  .000000000000D+00
     .600000000000D+01 -.120343750000D+03  .495663503517D-08  .270896579326D+01
    -.616535544395D-05  .155117876129D-01  .776350498199D-05  .515372892570D+04
     .561600000000D+06  .171363353729D-06 -.304187013047D+01 -.651925802231D-07
     .931985850894D+00  .211812500000D+03  .120339418252D+01 -.810926635492D-08
    -.295726603914D-09  .100000000000D+01  .169500000000D+04  .000000000000D+00
     .240000000000D+01  .000000000000D+00 -.465661287308D-08  .600000000000D+01
     .554406000000D+06  .400000000000D+01
 4 12  7  7 12  0  0.0  .236600637436D-03  .112549969344D-10  .000000000000D+00
     .350000000000D+02  .281250000000D+02  .494092009487D-08 -.528213983215D+00
     .173598527908D-05  .100184740731D-01  .974163413048D-05  .515362440681D+04
     .561600000000D+06  .372529029846D-07 -.186074984269D+01  .134110450745D-06
     .937425669348D+00  .180125000000D+03  .866408698863D+00 -.835427656058D-08
     .468948104999D-09  .100000000000D+01  .169500000000D+04  .000000000000D+00
     .240000000000D+01  .000000000000D+00 -.605359673500D-08  .350000000000D+02
     .554406000000D+06  .400000000000D+01
 5 12  7  7 12  0  0.0 -.332386698574D-03 -.352429196937D-11  .000000000000D+00
     .980000000000D+02  .157500000000D+02  .520057376763D-08 -.162234993295D+01
     .553205609322D-06  .269800156821D-02  .467523932457D-05  .515369045258D+04
     .561600000000D+06  .521540641785D-07 -.813669369807D+00 -.167638063431D-07
     .950455114111D+00  .281562500000D+03  .207342726531D+00 -.845499504162D-08
     .789318592573D-10  .100000000000D+01  .169500000000D+04  .000000000000D+00
     .240000000000D+01  .000000000000D+00 -.102445483208D-07  .980000000000D+02
     .554406000000D+06  .400000000000D+01
 6 12  7  7 12  0  0.0  .100024044514D-04 -.466116034659D-11  .000000000000D+00
     .650000000000D+02 -.103875000000D+03  .482412951579D-08 -.169801136405D+01
    -.534765422344D-05  .735066120978D-02  .906735658646D-05  .515369216919D+04
     .561600000000D+06 -.577419996262D-07 -.296496144906D+01  .223517417908D-07
     .938830269661D+00  .194750000000D+03 -.501046138880D+00 -.830891752834D-08
    -.160720980388D-09  .100000000000D+01  .169500000000D+04  .000000000000D+00
     .240000000000D+01  .000000000000D+00 -.512227416039D-08  .650000000000D+02
     .554406000000D+06  .400000000000D+01
 7 12  7  7 12  0  0.0  .979825854301D-04  .386535248253D-11  .000000000000D+00
     .540000000000D+02  .767812500000D+02  .420303221602D-08  .120559462928D+01
     .420026481152D-05  .562794809230D-02  .845082104206D-05  .515373638725D+04
     .561600000000D+06  .838190317154D-07  .129764161477D+01  .130385160446D-07
     .975747222440D+00  .221656250000D+03 -.303294216379D+01 -.801390523989D-08
     .885751180806D-10  .100000000000D+01  .169500000000D+04  .000000000000D+00
     .240000000000D+01  .000000000000D+00 -.107102096081D-07  .540000000000D+02
     .554406000000D+06  .400000000000D+01
 8 12  7  7 12  0  0.0  .168802216649D-05  .113686837722D-12  .000000000000D+00
     .101000000000D+03  .649375000000D+02  .375979946788D-08  .486829597538D+00
     .341422855854D-05  .124101729598D-01  .772066414356D-05  .515366997910D+04
     .561600000000D+06  .124797224998D-06  .138187875211D+01  .856816768646D-07
     .997943434773D+00  .245062500000D+03 -.296338823720D+01 -.785354141724D-08
     .105361531588D-09  .100000000000D+01  .169500000000D+04  .000000000000D+00
     .340000000000D+01  .000000000000D+00 -.372529029846D-08  .101000000000D+03
     .554406000000D+06  .400000000000D+01
 9 12  7  7 12  0  0.0  .170092564076D-03  .250111042988D-11  .000000000000D+00
     .670000000000D+02  .728750000000D+02  .407838416679D-08  .479586906640D+00
     .385753810406D-05  .175278137904D-01  .883452594280D-05  .515361851501D+04
     .561600000000D+06 -.214204192162D-06  .127218955390D+01 -.726431608200D-07
     .984482306291D+00  .226625000000D+03  .163222707013D+01 -.816176854185D-08
     .104647216119D-09  .100000000000D+01  .169500000000D+04  .000000000000D+00
     .340000000000D+01  .000000000000D+00 -.558793544769D-08  .670000000000D+02
     .554406000000D+06  .400000000000D+01
10 12  7  7 12  0  0.0 -.439225696027D-04 -.125055521494D-11  .000000000000D+00
     .470000000000D+02  .130312500000D+02  .527950562689D-08 -.137770666774D+01
     .741332769394D-06  .113560497994D-01  .428594648838D-05  .515370215988D+04
     .561600000000D+06  .234693288803D-06 -.792333240660D+00 -.167638063431D-07
     .945346355482D+00  .283093750000D+03  .752573966789D+00 -.844213736319D-08
     .104647216119D-09  .100000000000D+01  .169500000000D+04  .000000000000D+00
     .240000000000D+01  .000000000000D+00 -.232830643654D-08  .470000000000D+02
     .554406000000D+06  .400000000000D+01
12 12  7  7 12  0  0.0  .786068849266D-04  .204636307899D-11  .000000000000D+00
     .180000000000D+02 -.164062500000D+02  .440589780904D-08  .833353070078D+00
    -.847503542900D-06  .407164019998D-02  .257045030594D-05  .515376222420D+04
     .561600000000D+06  .689178705215D-07  .235473161600D+01  .838190317154D-07
     .980278121113D+00  .337593750000D+03  .103432114717D+00 -.824748639806D-08
    -.126433837905D-09  .100000000000D+01  .169500000000D+04  .000000000000D+00
     .240000000000D+01  .000000000000D+00 -.121071934700D-07  .180000000000D+02
     .554406000000D+06  .400000000000D+01
13 12  7  7 12  0  0.0  .196204520762D-03 -.250111042988D-11  .000000000000D+00
     .230000000000D+02 -.116250000000D+02  .398945189097D-08 -.287590092013D+01
    -.491738319397D-06  .494284066372D-02  .102259218693D-04  .515365088463D+04
     .561600000000D+06  .335276126862D-07  .327817055673D+00  .502914190292D-07
     .985647857012D+00  .196875000000D+03  .203926146896D+01 -.765281877062D-08
    -.368943939425D-09  .100000000000D+01  .169500000000D+04  .000000000000D+00
     .240000000000D+01  .000000000000D+00 -.111758708954D-07  .230000000000D+02
     .554406000000D+06  .400000000000D+01
15 12  7  7 12  0  0.0 -.922903418541D-04 -.341060513165D-12  .000000000000D+00
     .130000000000D+02 -.167500000000D+02  .491770484215D-08 -.310822039959D+01
    -.834465026855D-06  .443363527302D-02  .930950045586D-05  .515358873177D+04
     .561600000000D+06 -.104308128357D-06  .211757352475D+00  .242143869400D-07
     .945249369865D+00  .192781250000D+03  .451195812631D-01 -.808319384033D-08
    -.394659296287D-09  .100000000000D+01  .169500000000D+04  .000000000000D+00
     .240000000000D+01  .000000000000D+00 -.102445483208D-07  .130000000000D+02
     .554406000000D+06  .400000000000D+01
16 12  7  7 12  0  0.0 -.240393914282D-03 -.113686837722D-11  .000000000000D+00
     .350000000000D+02 -.219062500000D+02  .433268047353D-08 -.142220076814D+01
    -.112503767014D-05  .659916468430D-02  .286847352982D-05  .515369820213D+04
     .561600000000D+06 -.651925802231D-07  .237291333682D+01 -.106170773506D-06
     .981106897852D+00  .336125000000D+03  .130235682210D-01 -.822248535666D-08
     .321441960776D-11  .100000000000D+01  .169500000000D+04  .000000000000D+00
     .240000000000D+01  .000000000000D+00 -.977888703346D-08  .350000000000D+02
     .554406000000D+06  .400000000000D+01
17 12  7  7 12  0  0.0  .115297734737D-03 -.295585778076D-11  .000000000000D+00
     .880000000000D+02 -.954687500000D+02  .415803034151D-08 -.235536761086D+01
    -.484660267830D-05  .741516752169D-02  .919029116631D-05  .515371117783D+04
     .561600000000D+06 -.298023223877D-07 -.287046559284D+01 -.119209289551D-06
     .963593966128D+00  .203937500000D+03 -.229566513553D+01 -.776318051049D-08
    -.107504477993D-09  .100000000000D+01  .169500000000D+04  .000000000000D+00
     .240000000000D+01  .000000000000D+00 -.107102096081D-07  .880000000000D+02
     .554406000000D+06  .400000000000D+01
18 12  7  7 12  0  0.0  .204082578421D-03  .181898940355D-11  .000000000000D+00
     .150000000000D+02  .107187500000D+02  .581417075498D-08 -.886650091301D+00
     .908970832825D-06  .135384082096D-01  .428594648838D-05  .515369931984D+04
     .561600000000D+06  .745058059692D-07 -.804157792446D+00  .268220901489D-06
     .929149002580D+00  .280125000000D+03 -.216461761132D+01 -.886286917408D-08
     .471448209139D-10  .100000000000D+01  .169500000000D+04  .000000000000D+00
     .240000000000D+01  .000000000000D+00 -.107102096081D-07  .150000000000D+02
     .554406000000D+06  .400000000000D+01
19 12  7  7 12  0  0.0 -.282371882349D-03 -.363797880709D-11  .000000000000D+00
     .410000000000D+02 -.981250000000D+02  .425839166482D-08  .309835485018D+01
    -.500865280628D-05  .847209827043D-02  .103376805782D-04  .515360245705D+04
     .561600000000D+06 -.335276126862D-07 -.281757838910D+01 -.484287738800D-07
     .960935921513D+00  .180375000000D+03  .195681183318D+00 -.788247119371D-08
    -.171078554680D-09  .100000000000D+01  .169500000000D+04  .000000000000D+00
     .240000000000D+01  .000000000000D+00 -.144354999065D-07  .410000000000D+02
     .554406000000D+06  .400000000000D+01
20 12  7  7 12  0  0.0  .645355321467D-04  .341060513165D-12  .000000000000D+00
     .890000000000D+02  .195312500000D+02  .578774108265D-08 -.505027919549D+00
     .100769102573D-05  .491934607271D-02  .493042171001D-05  .515366615295D+04
     .561600000000D+06 -.596046447754D-07 -.857866293026D+00  .260770320892D-07
     .929612117093D+00  .273375000000D+03  .128889612079D+01 -.881429572223D-08
     .109290266664D-09  .100000000000D+01  .169500000000D+04  .000000000000D+00
     .340000000000D+01  .000000000000D+00 -.791624188423D-08  .890000000000D+02
     .554406000000D+06  .400000000000D+01
